OSCAR 7 (AO-7)          
1 07530U 74089B   18172.80251531 -.00000032  00000-0  82195-4 0  9992
2 07530 101.6870 140.0535 0011950 328.6590  91.4022 12.53633066995171
UOSAT 2 (UO-11)         
1 14781U 84021B   18172.58846236  .00000043  00000-0  11442-4 0  9990
2 14781  97.6486 208.6173 0009974  72.4018 287.8285 14.83012066824095
LUSAT (LO-19)           
1 20442U 90005G   18172.40227694  .00000004  00000-0  17652-4 0  9998
2 20442  98.6102 110.8681 0012557 133.7856 226.4369 14.32898316484438
ITAMSAT (IO-26)         
1 22826U 93061D   18172.50454695 -.00000007  00000-0  15117-4 0  9993
2 22826  98.8567 148.7354 0008350 330.5304  29.5406 14.30364352290122
RADIO ROSTO (RS-15)     
1 23439U 94085A   18172.58619455 -.00000024  00000-0  51137-3 0  9996
2 23439  64.8183 341.7184 0157126 181.2605 244.0606 11.27567291967067
JAS-2 (FO-29)           
1 24278U 96046B   18172.59314190 -.00000033  00000-0 -61518-6 0  9994
2 24278  98.5174  10.7428 0351412  99.4751 264.6284 13.53084038 78587
TECHSAT 1B (GO-32)      
1 25397U 98043D   18172.45929803 -.00000017  00000-0  11574-4 0  9990
2 25397  98.6499 112.8271 0001895  45.5704 314.5629 14.23647246 36113
ISS (ZARYA)             
1 25544U 98067A   18172.51324919  .00001976  00000-0  36987-4 0  9993
2 25544  51.6417 357.1427 0002932 207.6702 181.7278 15.54208167119199
PCSAT (NO-44)           
1 26931U 01043C   18172.54984559 -.00000028  00000-0  21095-4 0  9999
2 26931  67.0502 218.1528 0007924 274.0035  86.0160 14.30508436873107
SAUDISAT 1C (SO-50)     
1 27607U 02058C   18172.34664113 -.00000020  00000-0  18003-4 0  9993
2 27607  64.5560  77.3210 0065740 327.4770  32.2289 14.75458396833576
CUTE-1 (CO-55)          
1 27844U 03031E   18172.60189390  .00000046  00000-0  40305-4 0  9993
2 27844  98.6861 181.1933 0009874   6.6028 353.5278 14.22118678776789
CUBESAT XI-IV (CO-57)   
1 27848U 03031J   18172.56245767  .00000037  00000-0  36863-4 0  9997
2 27848  98.6946 181.5539 0009985  16.8850 343.2658 14.21722182776656
MOZHAYETS 4 (RS-22)     
1 27939U 03042A   18172.75548935  .00000060  00000-0  19310-4 0  9998
2 27939  97.9912 311.7717 0014076 130.5648 336.9003 14.66694365787489
CUBESAT XI-V (CO-58)    
1 28895U 05043F   18172.37839683  .00000122  00000-0  32208-4 0  9994
2 28895  97.9096 323.6641 0018025  59.1516 301.1458 14.63555134674255
CUTE-1.7+APD II (CO-65) 
1 32785U 08021C   18172.48562332  .00000197  00000-0  27031-4 0  9992
2 32785  97.5467 184.4588 0013853  30.6848 329.5176 14.88133146549743
DELFI-C3 (DO-64)        
1 32789U 08021G   18172.23116796  .00001612  00000-0  11440-3 0  9997
2 32789  97.5116 226.9386 0010803 285.5754  74.4280 15.06097123552296
SEEDS II (CO-66)        
1 32791U 08021J   18172.76867135  .00000235  00000-0  29361-4 0  9990
2 32791  97.5356 190.0976 0013604  10.7020 349.4486 14.90568710550194
YUBILEINY (RS-30)       
1 32953U 08025A   18172.62689690  .00000028  00000-0  13040-3 0  9993
2 32953  82.5027   9.9183 0018748 197.7940 162.2486 12.43083547457320
KKS-1 (KISEKI)          
1 33499U 09002H   18172.58733358  .00000104  00000-0  23472-4 0  9997
2 33499  98.3564 354.4965 0007919 280.5272  79.5044 14.75337315505405
SWISSCUBE               
1 35932U 09051B   18172.35318216  .00000107  00000-0  35202-4 0  9999
2 35932  98.5460 323.6136 0007482 188.1782 171.9295 14.56167778464006
BEESAT                  
1 35933U 09051C   18172.38010984  .00000113  00000-0  36540-4 0  9997
2 35933  98.5498 325.1918 0005411 198.8255 161.2742 14.56271000464155
ITUPSAT 1               
1 35935U 09051E   18172.36850293  .00000088  00000-0  31470-4 0  9990
2 35935  98.5611 325.4327 0007797 197.4294 162.6635 14.55447255463902
XIWANG-1 (HOPE-1)       
1 36122U 09072B   18172.57281524 -.00000061  00000-0 -50489-4 0  9994
2 36122 100.0747 187.0031 0008279 101.5882 258.6162 13.16344973409123
JUGNU                   
1 37839U 11058B   18172.57771697  .00000304  00000-0  20405-4 0  9995
2 37839  19.9629  10.6267 0018938 295.3443 106.5748 14.12621664345881
SRMSAT                  
1 37841U 11058D   18172.05526084  .00000291  00000-0  14814-4 0  9991
2 37841  19.9731  63.0739 0011936 172.9530 322.4040 14.10608474345428
M-CUBED & EXP-1 PRIME   
1 37855U 11061F   18172.73001123  .00001640  00000-0  90961-4 0  9993
2 37855 101.7155 237.5871 0176497  68.8698 293.1278 15.04471041362338
STRAND-1                
1 39090U 13009E   18172.64199505  .00000005  00000-0  17085-4 0  9992
2 39090  98.5215  18.9693 0008041 287.1539  72.8766 14.35029654278469
SOMP                    
1 39134U 13015E   18172.21560919  .00001203  00000-0  66314-4 0  9992
2 39134  64.8636 113.8782 0012472 214.5726 145.4592 15.19188572285134
BEESAT-3                
1 39135U 13015F   18172.37600516  .00001026  00000-0  61946-4 0  9997
2 39135  64.8681 126.7691 0019951 236.9075 123.0136 15.16695687285280
BEESAT-2                
1 39136U 13015G   18172.28123251  .00000880  00000-0  55305-4 0  9993
2 39136  64.8689 129.8720 0022290 236.4791 123.4206 15.16163278285217
ZACUBE-1 (TSHEPISOSAT)  
1 39417U 13066B   18172.63895346  .00000160  00000-0  26513-4 0  9991
2 39417  97.5865 201.0408 0060204 139.4787 221.0932 14.80943044247450
GOMX 1                  
1 39430U 13066Q   18172.76099801  .00000181  00000-0  42214-4 0  9991
2 39430  97.6977 149.3048 0150524 316.5916  42.3510 14.59087644243814
CUBEBUG-2 (LO-74)       
1 39440U 13066AA  18172.61590825  .00000178  00000-0  31781-4 0  9991
2 39440  97.6007 187.5901 0080506 180.0348 180.0871 14.75680515245373
FUNCUBE-1 (AO-73)       
1 39444U 13066AE  18172.56502840  .00000242  00000-0  36188-4 0  9997
2 39444  97.5874 202.5015 0059433 135.1520 225.4519 14.81724321245712
UWE-3                   
1 39446U 13066AG  18172.56341753  .00000192  00000-0  32219-4 0  9998
2 39446  97.5922 193.8564 0070764 160.3104 200.0865 14.78214625245177
SPROUT                  
1 39770U 14029E   18172.69878157  .00000527  00000-0  65208-4 0  9991
2 39770  97.8776 273.7066 0008815 184.9208 175.1914 14.86863653221033
UNISAT-6                
1 40012U 14033C   18172.62720138  .00000147  00000-0  29492-4 0  9998
2 40012  97.8079  48.7356 0058253 183.6345 176.4448 14.73827289215356
DUCHIFAT-1              
1 40021U 14033M   18172.35554332  .00000243  00000-0  30851-4 0  9997
2 40021  97.9162  91.0823 0013307 158.3087 201.8696 14.90318717217577
FUNCUBE-3 (EO-79)       
1 40025U 14033R   18172.58349423  .00000262  00000-0  34080-4 0  9998
2 40025  97.9054  87.9733 0012715 164.2014 195.9601 14.88723615216935
NUDT-PHONESAT           
1 40900U 15049B   18172.58055941  .00002052  00000-0  94509-4 0  9998
2 40900  97.4406 180.7815 0014043  21.8133 338.3698 15.21350239152587
ZDPS 2A                 
1 40901U 15049C   18172.76057797  .00000806  00000-0  43953-4 0  9992
2 40901  97.4582 179.0354 0014502  28.5388 331.6636 15.17105296152357
ZDPS 2B                 
1 40902U 15049D   18172.73490608  .00000844  00000-0  46148-4 0  9993
2 40902  97.4482 177.0255 0014508  25.9656 334.2303 15.16899611152338
XW-2A                   
1 40903U 15049E   18172.72373132  .00001838  00000-0  47261-4 0  9996
2 40903  97.3837 207.6242 0014659  21.3096 338.8757 15.40526120154506
KAITUO 1A               
1 40904U 15049F   18172.76633090  .00000248  00000-0  16755-4 0  9991
2 40904  97.4588 176.2653 0015800  27.8345  57.5030 15.15029104152199
2015-049G               
1 40905U 15049G   18172.77597876  .00000378  00000-0  24368-4 0  9997
2 40905  97.4584 174.3421 0016369  20.9325 339.2573 15.13982605152117
XW-2C                   
1 40906U 15049H   18172.74298407  .00000595  00000-0  35149-4 0  9993
2 40906  97.4594 176.1507 0015593  20.5639 339.6218 15.15204940152184
XW-2D                   
1 40907U 15049J   18172.76101516  .00000640  00000-0  37357-4 0  9994
2 40907  97.4568 175.8648 0014888  18.6921 341.4855 15.15357103152195
LILACSAT 2              
1 40908U 15049K   18172.57483523  .00000335  00000-0  22278-4 0  9992
2 40908  97.4681 175.0352 0016571  20.3560 339.8329 15.13520142152039
XW-2F                   
1 40910U 15049M   18172.57405783  .00000989  00000-0  54001-4 0  9991
2 40910  97.4569 177.0042 0015481  14.8229 345.3455 15.16555649152242
XW-2B                   
1 40911U 15049N   18172.77869145  .00000638  00000-0  37311-4 0  9996
2 40911  97.4604 176.4217 0014812  19.2261 340.9527 15.15300783152092
KAITUO 1B               
1 40912U 15049P   18172.57311102  .00001061  00000-0  54185-4 0  9999
2 40912  97.4502 179.8384 0015616   2.3805 115.5407 15.18775304152330
TIANWANG 1C (TW-1C)     
1 40926U 15051B   18172.66794884  .00008412  00000-0  15632-3 0  9999
2 40926  97.1822 214.9895 0007700 256.3636 222.0356 15.49126082154003
TIANWANG 1A (TW-1A)     
1 40928U 15051D   18172.50093139  .00002430  00000-0  65494-4 0  9995
2 40928  97.1846 206.4049 0010501 312.7520 153.9378 15.38738926153447
LAPAN-A2 (IO-86)        
1 40931U 15052B   18172.38124582  .00000637  00000-0 -39861-6 0  9992
2 40931   5.9990 120.2077 0013548  64.9707 295.1853 14.76577781147620
E-ST@R-II               
1 41459U 16025D   18172.43574265  .00002059  00000-0  11025-3 0  9990
2 41459  98.1379 235.3500 0172301 133.9467 227.6103 15.04418253118067
AAUSAT 4                
1 41460U 16025E   18172.67611568  .00002382  00000-0  12568-3 0  9998
2 41460  98.1272 236.1117 0163198 129.0255 232.5653 15.05849279118162
NUSAT 1 (LO-87)         
1 41557U 16033B   18172.75645855  .00001323  00000-0  51026-4 0  9996
2 41557  97.4377 256.9642 0015571 142.2414 217.9921 15.28017257114850
BEESAT-4                
1 41619U 16040W   18172.21058018  .00001299  00000-0  59655-4 0  9991
2 41619  97.4146 235.3018 0010760 208.6879 151.3767 15.22136799 98709
ALSAT 1N                
1 41789U 16059G   18172.74180754  .00000058  00000-0  20144-4 0  9993
2 41789  98.1186 235.4602 0029716  74.0988 286.3479 14.64160408 92685
CAS-2T & KS-1Q          
1 41847U 16066G   18172.56484080  .00000056  00000-0  19751-4 0  9995
2 41847  98.7494 201.5588 0365357 231.3703 125.4253 14.37899374 84957
NAYIF-1 (EO-88)         
1 42017U 17008BX  18172.42854022  .00001386  00000-0  59387-4 0  9990
2 42017  97.4478 237.4607 0006740  20.6612 339.4897 15.24459449 74717
LILACSAT-1              
1 42725U 98067ME  18172.69519299  .00020641  00000-0  17548-3 0  9990
2 42725  51.6365 335.1087 0004259 245.3009 114.7545 15.69573871 61228
MAX VALIER SAT          
1 42778U 17036P   18172.71915275  .00000969  00000-0  46279-4 0  9997
2 42778  97.4029 232.3570 0014123  58.8878 301.3741 15.21320837 55199
FOX-1B (AO-91)          
1 43017U 17073E   18172.61300693  .00000319  00000-0  31251-4 0  9999
2 43017  97.7074 103.5598 0258240 257.1729 100.0518 14.78089459 31763
FOX-1D (AO-92)          
1 43137U 18004AC  18172.23809075  .00000973  00000-0  44775-4 0  9994
2 43137  97.5333 234.9504 0011247  87.5550 272.6974 15.22721147 24333
